[{"OBJECT_NAME":"STARLINK-2740","OBJECT_ID":"2021-044BE","EPOCH":"2026-03-09T09:28:17.791104","MEAN_MOTION":15.30199466,"ECCENTRICITY":0.00012785,"INCLINATION":53.1612,"RA_OF_ASC_NODE":76.6888,"ARG_OF_PERICENTER":99.2058,"MEAN_ANOMALY":260.9087,"EPHEMERIS_TYPE":0,"CLASSIFICATION_TYPE":"U","NORAD_CAT_ID":48690,"ELEMENT_SET_NO":999,"REV_AT_EPOCH":26431,"BSTAR":3.7044851e-5,"MEAN_MOTION_DOT":7.38e-6,"MEAN_MOTION_DDOT":0},{"OBJECT_NAME":"CZ-6A DEB","OBJECT_ID":"2024-140AAN","EPOCH":"2026-03-09T15:08:07.195776","MEAN_MOTION":15.20547394,"ECCENTRICITY":0.0064261,"INCLINATION":89.3669,"RA_OF_ASC_NODE":306.3092,"ARG_OF_PERICENTER":93.6352,"MEAN_ANOMALY":267.2246,"EPHEMERIS_TYPE":0,"CLASSIFICATION_TYPE":"U","NORAD_CAT_ID":61480,"ELEMENT_SET_NO":999,"REV_AT_EPOCH":8198,"BSTAR":0.0033609,"MEAN_MOTION_DOT":0.00078405,"MEAN_MOTION_DDOT":0}]
